STARLINK-5927           
1 55934U 23037W   26008.48464884  .00214284  00000+0  16720-1 0  9990
2 55934  69.9991  76.1924 0009472 282.3536  77.6563 14.99897947154967
STARLINK-5920           
1 55935U 23037X   26010.50958695  .00000053  00000+0  12261-4 0  9991
2 55935  70.0000  71.2215 0003221 270.2604  89.8186 14.98330441155269
STARLINK-5882           
1 55936U 23037Y   26010.51767666  .00002460  00000+0  21377-3 0  9990
2 55936  69.9999  50.9637 0002991 267.0386  93.0431 14.98345761155766
STARLINK-5913           
1 55937U 23037Z   26010.50541316 -.00001236  00000+0 -95812-4 0  9990
2 55937  70.0004  71.2071 0002951 269.7790  90.3031 14.98322612155260
STARLINK-5909           
1 55938U 23037AA  26010.50124966 -.00002020  00000+0 -16159-3 0  9997
2 55938  70.0006  71.1906 0003119 276.7469  83.3335 14.98309486155260
STARLINK-5918           
1 55939U 23037AB  26010.55964878  .00001104  00000+0  10035-3 0  9994
2 55939  69.9999  70.9931 0003140 268.5890  91.4910 14.98318432155276
STARLINK-5864           
1 55940U 23037AC  26010.89762293  .00000182  00000+0  23033-4 0  9998
2 55940  70.0002  70.1667 0003103 269.8485  90.2318 14.98330276155322
STARLINK-5914           
1 55941U 23037AD  26010.52211079 -.00000041  00000+0  43897-5 0  9996
2 55941  70.0005  71.2673 0003357 268.0078  92.0697 14.98325586155266
STARLINK-5917           
1 55942U 23037AE  26010.87257542 -.00001297  00000+0 -10086-3 0  9997
2 55942  70.0003  70.0781 0003163 271.6397  88.4400 14.98338191155325
STARLINK-5932           
1 55943U 23037AF  26010.54712694  .00000225  00000+0  26683-4 0  9995
2 55943  70.0004  70.9396 0002927 270.1154  89.9669 14.98328851155279
STARLINK-5926           
1 55944U 23037AG  26010.87675431 -.00001208  00000+0 -93413-4 0  9998
2 55944  70.0013  70.0929 0002933 268.9786  91.1037 14.98341884155327
STARLINK-5925           
1 55945U 23037AH  26009.88386416 -.00001445  00000+0 -11326-3 0  9995
2 55945  70.0013  72.6468 0003232 274.1189  85.9600 14.98346116155176
STARLINK-5857           
1 55946U 23037AJ  26010.41777971  .00000052  00000+0  12137-4 0  9990
2 55946  69.9995  71.2990 0003175 271.9837  88.0959 14.98330302155248
STARLINK-5851           
1 55947U 23037AK  26010.53465052  .00002213  00000+0  19321-3 0  9990
2 55947  70.0009  70.9059 0004195 226.0664 134.0150 14.98330574155271
STARLINK-5900           
1 55948U 23037AL  26010.96416026 -.00000348  00000+0 -21327-4 0  9994
2 55948  69.9995  50.1176 0003268 271.7249  88.3536 14.98329268155827
STARLINK-5899           
1 55949U 23037AM  26010.50518825 -.00001485  00000+0 -11670-3 0  9997
2 55949  70.0001  51.3252 0003131 270.2989  89.7811 14.98322933155756
