[{"OBJECT_NAME":"STARLINK-5927","OBJECT_ID":"2023-037W","EPOCH":"2026-01-08T11:37:53.659776","MEAN_MOTION":14.99897947,"ECCENTRICITY":0.00094722,"INCLINATION":69.9991,"RA_OF_ASC_NODE":76.1924,"ARG_OF_PERICENTER":282.3536,"MEAN_ANOMALY":77.6563,"EPHEMERIS_TYPE":0,"CLASSIFICATION_TYPE":"U","NORAD_CAT_ID":55934,"ELEMENT_SET_NO":999,"REV_AT_EPOCH":15496,"BSTAR":0.016720483,"MEAN_MOTION_DOT":0.00214284,"MEAN_MOTION_DDOT":0},{"OBJECT_NAME":"STARLINK-5920","OBJECT_ID":"2023-037X","EPOCH":"2026-01-10T12:13:48.312480","MEAN_MOTION":14.98330441,"ECCENTRICITY":0.00032218,"INCLINATION":70,"RA_OF_ASC_NODE":71.2215,"ARG_OF_PERICENTER":270.2604,"MEAN_ANOMALY":89.8186,"EPHEMERIS_TYPE":0,"CLASSIFICATION_TYPE":"U","NORAD_CAT_ID":55935,"ELEMENT_SET_NO":999,"REV_AT_EPOCH":15526,"BSTAR":1.2261197e-5,"MEAN_MOTION_DOT":5.3e-7,"MEAN_MOTION_DDOT":0},{"OBJECT_NAME":"STARLINK-5882","OBJECT_ID":"2023-037Y","EPOCH":"2026-01-10T12:25:27.263424","MEAN_MOTION":14.98345761,"ECCENTRICITY":0.00029917,"INCLINATION":69.9999,"RA_OF_ASC_NODE":50.9637,"ARG_OF_PERICENTER":267.0386,"MEAN_ANOMALY":93.0431,"EPHEMERIS_TYPE":0,"CLASSIFICATION_TYPE":"U","NORAD_CAT_ID":55936,"ELEMENT_SET_NO":999,"REV_AT_EPOCH":15576,"BSTAR":0.0002137747,"MEAN_MOTION_DOT":2.46e-5,"MEAN_MOTION_DDOT":0},{"OBJECT_NAME":"STARLINK-5913","OBJECT_ID":"2023-037Z","EPOCH":"2026-01-10T12:07:47.697024","MEAN_MOTION":14.98322612,"ECCENTRICITY":0.00029511,"INCLINATION":70.0004,"RA_OF_ASC_NODE":71.2071,"ARG_OF_PERICENTER":269.779,"MEAN_ANOMALY":90.3031,"EPHEMERIS_TYPE":0,"CLASSIFICATION_TYPE":"U","NORAD_CAT_ID":55937,"ELEMENT_SET_NO":999,"REV_AT_EPOCH":15526,"BSTAR":-9.5812386e-5,"MEAN_MOTION_DOT":-1.236e-5,"MEAN_MOTION_DDOT":0},{"OBJECT_NAME":"STARLINK-5909","OBJECT_ID":"2023-037AA","EPOCH":"2026-01-10T12:01:47.970624","MEAN_MOTION":14.98309486,"ECCENTRICITY":0.00031199,"INCLINATION":70.0006,"RA_OF_ASC_NODE":71.1906,"ARG_OF_PERICENTER":276.7469,"MEAN_ANOMALY":83.3335,"EPHEMERIS_TYPE":0,"CLASSIFICATION_TYPE":"U","NORAD_CAT_ID":55938,"ELEMENT_SET_NO":999,"REV_AT_EPOCH":15526,"BSTAR":-0.00016159124,"MEAN_MOTION_DOT":-2.02e-5,"MEAN_MOTION_DDOT":0},{"OBJECT_NAME":"STARLINK-5918","OBJECT_ID":"2023-037AB","EPOCH":"2026-01-10T13:25:53.654592","MEAN_MOTION":14.98318432,"ECCENTRICITY":0.00031405,"INCLINATION":69.9999,"RA_OF_ASC_NODE":70.9931,"ARG_OF_PERICENTER":268.589,"MEAN_ANOMALY":91.491,"EPHEMERIS_TYPE":0,"CLASSIFICATION_TYPE":"U","NORAD_CAT_ID":55939,"ELEMENT_SET_NO":999,"REV_AT_EPOCH":15527,"BSTAR":0.00010035052,"MEAN_MOTION_DOT":1.104e-5,"MEAN_MOTION_DDOT":0},{"OBJECT_NAME":"STARLINK-5864","OBJECT_ID":"2023-037AC","EPOCH":"2026-01-10T21:32:34.621152","MEAN_MOTION":14.98330276,"ECCENTRICITY":0.00031033,"INCLINATION":70.0002,"RA_OF_ASC_NODE":70.1667,"ARG_OF_PERICENTER":269.8485,"MEAN_ANOMALY":90.2318,"EPHEMERIS_TYPE":0,"CLASSIFICATION_TYPE":"U","NORAD_CAT_ID":55940,"ELEMENT_SET_NO":999,"REV_AT_EPOCH":15532,"BSTAR":2.3032822e-5,"MEAN_MOTION_DOT":1.82e-6,"MEAN_MOTION_DDOT":0},{"OBJECT_NAME":"STARLINK-5914","OBJECT_ID":"2023-037AD","EPOCH":"2026-01-10T12:31:50.372256","MEAN_MOTION":14.98325586,"ECCENTRICITY":0.0003357,"INCLINATION":70.0005,"RA_OF_ASC_NODE":71.2673,"ARG_OF_PERICENTER":268.0078,"MEAN_ANOMALY":92.0697,"EPHEMERIS_TYPE":0,"CLASSIFICATION_TYPE":"U","NORAD_CAT_ID":55941,"ELEMENT_SET_NO":999,"REV_AT_EPOCH":15526,"BSTAR":4.389654e-6,"MEAN_MOTION_DOT":-4.1e-7,"MEAN_MOTION_DDOT":0},{"OBJECT_NAME":"STARLINK-5917","OBJECT_ID":"2023-037AE","EPOCH":"2026-01-10T20:56:30.516288","MEAN_MOTION":14.98338191,"ECCENTRICITY":0.0003163,"INCLINATION":70.0003,"RA_OF_ASC_NODE":70.0781,"ARG_OF_PERICENTER":271.6397,"MEAN_ANOMALY":88.44,"EPHEMERIS_TYPE":0,"CLASSIFICATION_TYPE":"U","NORAD_CAT_ID":55942,"ELEMENT_SET_NO":999,"REV_AT_EPOCH":15532,"BSTAR":-0.00010085936,"MEAN_MOTION_DOT":-1.297e-5,"MEAN_MOTION_DDOT":0},{"OBJECT_NAME":"STARLINK-5932","OBJECT_ID":"2023-037AF","EPOCH":"2026-01-10T13:07:51.767616","MEAN_MOTION":14.98328851,"ECCENTRICITY":0.00029271,"INCLINATION":70.0004,"RA_OF_ASC_NODE":70.9396,"ARG_OF_PERICENTER":270.1154,"MEAN_ANOMALY":89.9669,"EPHEMERIS_TYPE":0,"CLASSIFICATION_TYPE":"U","NORAD_CAT_ID":55943,"ELEMENT_SET_NO":999,"REV_AT_EPOCH":15527,"BSTAR":2.6683308e-5,"MEAN_MOTION_DOT":2.25e-6,"MEAN_MOTION_DDOT":0},{"OBJECT_NAME":"STARLINK-5926","OBJECT_ID":"2023-037AG","EPOCH":"2026-01-10T21:02:31.572384","MEAN_MOTION":14.98341884,"ECCENTRICITY":0.00029337,"INCLINATION":70.0013,"RA_OF_ASC_NODE":70.0929,"ARG_OF_PERICENTER":268.9786,"MEAN_ANOMALY":91.1037,"EPHEMERIS_TYPE":0,"CLASSIFICATION_TYPE":"U","NORAD_CAT_ID":55944,"ELEMENT_SET_NO":999,"REV_AT_EPOCH":15532,"BSTAR":-9.341314e-5,"MEAN_MOTION_DOT":-1.208e-5,"MEAN_MOTION_DDOT":0},{"OBJECT_NAME":"STARLINK-5925","OBJECT_ID":"2023-037AH","EPOCH":"2026-01-09T21:12:45.863424","MEAN_MOTION":14.98346116,"ECCENTRICITY":0.00032324,"INCLINATION":70.0013,"RA_OF_ASC_NODE":72.6468,"ARG_OF_PERICENTER":274.1189,"MEAN_ANOMALY":85.96,"EPHEMERIS_TYPE":0,"CLASSIFICATION_TYPE":"U","NORAD_CAT_ID":55945,"ELEMENT_SET_NO":999,"REV_AT_EPOCH":15517,"BSTAR":-0.00011326441,"MEAN_MOTION_DOT":-1.445e-5,"MEAN_MOTION_DDOT":0},{"OBJECT_NAME":"STARLINK-5857","OBJECT_ID":"2023-037AJ","EPOCH":"2026-01-10T10:01:36.166944","MEAN_MOTION":14.98330302,"ECCENTRICITY":0.00031753,"INCLINATION":69.9995,"RA_OF_ASC_NODE":71.299,"ARG_OF_PERICENTER":271.9837,"MEAN_ANOMALY":88.0959,"EPHEMERIS_TYPE":0,"CLASSIFICATION_TYPE":"U","NORAD_CAT_ID":55946,"ELEMENT_SET_NO":999,"REV_AT_EPOCH":15524,"BSTAR":1.213726e-5,"MEAN_MOTION_DOT":5.2e-7,"MEAN_MOTION_DDOT":0},{"OBJECT_NAME":"STARLINK-5851","OBJECT_ID":"2023-037AK","EPOCH":"2026-01-10T12:49:53.804928","MEAN_MOTION":14.98330574,"ECCENTRICITY":0.0004195,"INCLINATION":70.0009,"RA_OF_ASC_NODE":70.9059,"ARG_OF_PERICENTER":226.0664,"MEAN_ANOMALY":134.015,"EPHEMERIS_TYPE":0,"CLASSIFICATION_TYPE":"U","NORAD_CAT_ID":55947,"ELEMENT_SET_NO":999,"REV_AT_EPOCH":15527,"BSTAR":0.00019321455,"MEAN_MOTION_DOT":2.213e-5,"MEAN_MOTION_DDOT":0},{"OBJECT_NAME":"STARLINK-5900","OBJECT_ID":"2023-037AL","EPOCH":"2026-01-10T23:08:23.446464","MEAN_MOTION":14.98329268,"ECCENTRICITY":0.00032687,"INCLINATION":69.9995,"RA_OF_ASC_NODE":50.1176,"ARG_OF_PERICENTER":271.7249,"MEAN_ANOMALY":88.3536,"EPHEMERIS_TYPE":0,"CLASSIFICATION_TYPE":"U","NORAD_CAT_ID":55948,"ELEMENT_SET_NO":999,"REV_AT_EPOCH":15582,"BSTAR":-2.1327332e-5,"MEAN_MOTION_DOT":-3.48e-6,"MEAN_MOTION_DDOT":0},{"OBJECT_NAME":"STARLINK-5899","OBJECT_ID":"2023-037AM","EPOCH":"2026-01-10T12:07:28.264800","MEAN_MOTION":14.98322933,"ECCENTRICITY":0.00031315,"INCLINATION":70.0001,"RA_OF_ASC_NODE":51.3252,"ARG_OF_PERICENTER":270.2989,"MEAN_ANOMALY":89.7811,"EPHEMERIS_TYPE":0,"CLASSIFICATION_TYPE":"U","NORAD_CAT_ID":55949,"ELEMENT_SET_NO":999,"REV_AT_EPOCH":15575,"BSTAR":-0.00011669977,"MEAN_MOTION_DOT":-1.485e-5,"MEAN_MOTION_DDOT":0}]
